WORLDVIEW-1 (WV-1)      
1 32060U 07041A   26198.94608212  .00003083  00000+0  12803-3 0  9991
2 32060  97.3907 318.2593 0001788 193.9547 166.1642 15.24576267 47564
WORLDVIEW-2 (WV-2)      
1 35946U 09055A   26198.99033282  .00000046  00000+0  29745-4 0  9998
2 35946  98.4755 272.0206 0005414 123.0912 237.0795 14.37907397880074
WORLDVIEW-3 (WV-3)      
1 40115U 14048A   26198.95967559  .00000336  00000+0  45561-4 0  9995
2 40115  97.8555 273.3664 0001509 151.6753 208.4544 14.85066533646471
