{"fetched_at":"2026-07-18T06:28:36.748Z","source":"https://celestrak.org/NORAD/elements/gp.php?NAME=WORLDVIEW&FORMAT=JSON","constellation":"worldview","records":[{"OBJECT_NAME":"WORLDVIEW-1 (WV-1)","OBJECT_ID":"2007-041A","EPOCH":"2026-07-17T22:42:21.495168","CLASSIFICATION_TYPE":"U","MEAN_MOTION":15.24576267,"ECCENTRICITY":0.00017883,"INCLINATION":97.3907,"RA_OF_ASC_NODE":318.2593,"ARG_OF_PERICENTER":193.9547,"MEAN_ANOMALY":166.1642,"EPHEMERIS_TYPE":0,"NORAD_CAT_ID":32060,"ELEMENT_SET_NO":999,"REV_AT_EPOCH":4756,"BSTAR":0.00012802803,"MEAN_MOTION_DOT":0.00003083,"MEAN_MOTION_DDOT":0},{"OBJECT_NAME":"WORLDVIEW-2 (WV-2)","OBJECT_ID":"2009-055A","EPOCH":"2026-07-17T23:46:04.755648","CLASSIFICATION_TYPE":"U","MEAN_MOTION":14.37907397,"ECCENTRICITY":0.00054144,"INCLINATION":98.4755,"RA_OF_ASC_NODE":272.0206,"ARG_OF_PERICENTER":123.0912,"MEAN_ANOMALY":237.0795,"EPHEMERIS_TYPE":0,"NORAD_CAT_ID":35946,"ELEMENT_SET_NO":999,"REV_AT_EPOCH":88007,"BSTAR":0.000029745157,"MEAN_MOTION_DOT":4.6e-7,"MEAN_MOTION_DDOT":0},{"OBJECT_NAME":"WORLDVIEW-3 (WV-3)","OBJECT_ID":"2014-048A","EPOCH":"2026-07-17T23:01:55.970976","CLASSIFICATION_TYPE":"U","MEAN_MOTION":14.85066533,"ECCENTRICITY":0.00015095,"INCLINATION":97.8555,"RA_OF_ASC_NODE":273.3664,"ARG_OF_PERICENTER":151.6753,"MEAN_ANOMALY":208.4544,"EPHEMERIS_TYPE":0,"NORAD_CAT_ID":40115,"ELEMENT_SET_NO":999,"REV_AT_EPOCH":64647,"BSTAR":0.000045560737,"MEAN_MOTION_DOT":0.00000336,"MEAN_MOTION_DDOT":0}]}
